NORAD_CAT_ID,OBJECT_NAME,OBJECT_TYPE,EPOCH,MEAN_MOTION,ECCENTRICITY,INCLINATION,RA_OF_ASC_NODE,ARG_OF_PERICENTER,MEAN_ANOMALY,BSTAR,MEAN_MOTION_DOT,MEAN_MOTION_DDOT,TLE_LINE0,TLE_LINE1,TLE_LINE2,SEMIMAJOR_AXIS,PERIOD,APOGEE,PERIGEE,DECAYED
53411.0,STARLINK-4497,PAYLOAD,2022-10-22 22:00:00,15.08854772,0.0001626,53.2122,252.7424,49.2041,241.7737,-0.00096257,-0.00015581,0.0,0 STARLINK-4497,1 53411U 22097Z   22295.91667824 -.00015581  00000-0 -96257-3 0  9991,2 53411  53.2122 252.7424 0001626  49.2041 241.7737 15.08854772  1304,6917.835,95.437,540.825,538.575,0.0
53411.0,STARLINK-4497,PAYLOAD,2022-10-23 08:00:01,15.08825895,0.0001855999999999,53.212,250.8734,43.527,352.0298,0.0039478,0.0006307999999999,0.0,0 STARLINK-4497,1 53411U 22097Z   22296.33335648  .00063080  00000-0  39478-2 0  9990,2 53411  53.2120 250.8734 0001856  43.5270 352.0298 15.08825895 11966,6917.924,95.438,541.072,538.505,0.0
53411.0,STARLINK-4497,PAYLOAD,2022-10-23 14:00:01,15.08863828,0.0001774,53.212,249.7496,46.6591,267.5281,-0.00090907,-0.00014736,0.0,0 STARLINK-4497,1 53411U 22097Z   22296.58334491 -.00014736  00000-0 -90907-3 0  9993,2 53411  53.2120 249.7496 0001774  46.6591 267.5281 15.08863828  1304,6917.808000000001,95.436,540.9,538.445,0.0
53411.0,STARLINK-4497,PAYLOAD,2022-10-23 22:00:00,15.08881188,0.000174,53.2122,248.2527,51.869,273.9305,-0.0037897,-0.00060166,0.0,0 STARLINK-4497,1 53411U 22097Z   22296.91667824 -.00060166  00000-0 -37897-2 0  9995,2 53411  53.2122 248.2527 0001740  51.8690 273.9305 15.08881188 12057,6917.754,95.435,540.823,538.4159999999998,0.0
53411.0,STARLINK-4497,PAYLOAD,2022-10-24 14:00:01,15.08766762,0.0001631999999999,53.2124,245.2599,40.8568,308.119,0.0022769,0.00036062,0.0,0 STARLINK-4497,1 53411U 22097Z   22297.58334491  .00036062  00000-0  22769-2 0  9998,2 53411  53.2124 245.2599 0001632  40.8568 308.1190 15.08766762  1306,6918.104,95.442,541.0980000000002,538.84,0.0
53411.0,STARLINK-4497,PAYLOAD,2022-10-24 22:00:00,15.08819717,0.0001579,53.2126,243.7632,43.6183,316.874,0.00031902,4.79e-05,0.0,0 STARLINK-4497,1 53411U 22097Z   22297.91667824  .00004790  00000-0  31902-3 0  9997,2 53411  53.2126 243.7632 0001579  43.6183 316.8740 15.08819717  1310,6917.941999999999,95.439,540.9,538.715,0.0
53411.0,STARLINK-4497,PAYLOAD,2022-10-25 00:00:00,15.08830079,0.0001644,53.2125,243.3897,42.0876,51.295,-0.0011645,-0.00018768,0.0,0 STARLINK-4497,1 53411U 22097Z   22298.00001157 -.00018768  00000-0 -11645-2 0  9992,2 53411  53.2125 243.3897 0001644  42.0876  51.2950 15.08830079 12211,6917.911,95.438,540.913,538.638,0.0
53411.0,STARLINK-4497,PAYLOAD,2022-10-25 14:00:01,15.08832078,0.0001684,53.213,240.7704,41.0332,342.6038,-4.0531e-05,-9.33e-06,0.0,0 STARLINK-4497,1 53411U 22097Z   22298.58334491 -.00000933  00000-0 -40531-4 0  9998,2 53411  53.2130 240.7704 0001684  41.0332 342.6038 15.08832078  1308,6917.905,95.438,540.935,538.605,0.0
53411.0,STARLINK-4497,PAYLOAD,2022-10-25 22:00:01,15.08853645,0.0001702,53.2132,239.2739,44.5562,350.7253,-0.00012027,-2.202e-05,0.0,0 STARLINK-4497,1 53411U 22097Z   22298.91668981 -.00002202  00000-0 -12027-3 0  9998,2 53411  53.2132 239.2739 0001702  44.5562 350.7253 15.08853645 12354,6917.839,95.437,540.881,538.526,0.0
53411.0,STARLINK-4497,PAYLOAD,2022-10-26 14:00:01,15.08842057,0.0001825,53.2135,236.2809,45.8745,12.5751,-0.00024977,-4.261e-05,0.0,0 STARLINK-4497,1 53411U 22097Z   22299.58334491 -.00004261  00000-0 -24977-3 0  9992,2 53411  53.2135 236.2809 0001825  45.8745  12.5751 15.08842057  1309,6917.874,95.437,541.002,538.477,0.0
53411.0,STARLINK-4497,PAYLOAD,2022-10-26 22:00:00,15.08864077,0.0001863,53.2136,234.7846,48.3247,21.711,-0.0013922,-0.00022392,0.0,0 STARLINK-4497,1 53411U 22097Z   22299.91667824 -.00022392  00000-0 -13922-2 0  9990,2 53411  53.2136 234.7846 0001863  48.3247  21.7110 15.08864077  1308,6917.807,95.436,540.961,538.383,0.0
53411.0,STARLINK-4497,PAYLOAD,2022-10-27 08:00:01,15.08829314,0.0001981,53.2133,232.9153,41.7875,132.7726,0.0023477,0.00037263,0.0,0 STARLINK-4497,1 53411U 22097Z   22300.33334491  .00037263  00000-0  23477-2 0  9997,2 53411  53.2133 232.9153 0001981  41.7875 132.7726 15.08829314 12562,6917.913000000001,95.438,541.148,538.408,0.0
53411.0,STARLINK-4497,PAYLOAD,2022-10-27 14:00:01,15.08841529,0.0001821,53.2137,231.7915,46.125,47.1953,0.00071043,0.00011037,0.0,0 STARLINK-4497,1 53411U 22097Z   22300.58335648  .00011037  00000-0  71043-3 0  9993,2 53411  53.2137 231.7915 0001821  46.1250  47.1953 15.08841529  1301,6917.876,95.437,541.0,538.481,0.0
53411.0,STARLINK-4497,PAYLOAD,2022-10-27 22:00:00,15.08865171,0.0001898,53.2137,230.2954,49.7128,55.1442,-0.0025678,-0.00040952,0.0,0 STARLINK-4497,1 53411U 22097Z   22300.91667824 -.00040952  00000-0 -25678-2 0  9996,2 53411  53.2137 230.2954 0001898  49.7128  55.1442 15.08865171  1306,6917.803000000001,95.436,540.981,538.355,0.0
53411.0,STARLINK-4497,PAYLOAD,2022-10-28 14:00:01,15.0882285,0.0001796,53.2134,227.3022,48.0426,80.1081,0.0018027,0.00028505,0.0,0 STARLINK-4497,1 53411U 22097Z   22301.58335648  .00028505  00000-0  18027-2 0  9994,2 53411  53.2134 227.3022 0001796  48.0426  80.1081 15.08822850  1300,6917.933000000001,95.439,541.04,538.555,0.0
53411.0,STARLINK-4497,PAYLOAD,2022-10-28 22:00:01,15.0886908,0.00018,53.2133,225.8063,48.396,91.3343,-0.003757,-0.00059634,0.0,0 STARLINK-4497,1 53411U 22097Z   22301.91668981 -.00059634  00000-0 -37570-2 0  9993,2 53411  53.2133 225.8063 0001800  48.3960  91.3343 15.08869080  1300,6917.792,95.436,540.9019999999998,538.411,0.0
53411.0,STARLINK-4497,PAYLOAD,2022-10-29 12:00:00,15.08822442,0.0001703,53.213,223.1873,45.1119,24.85,-0.00071435,-0.00011634,0.0,0 STARLINK-4497,1 53411U 22097Z   22302.50001157 -.00011634  00000-0 -71435-3 0  9992,2 53411  53.2130 223.1873 0001703  45.1119  24.8500 15.08822442  1307,6917.934,95.439,540.977,538.621,0.0
53411.0,STARLINK-4497,PAYLOAD,2022-10-29 22:00:01,15.08859505,0.0001674,53.2131,221.3175,48.0685,126.4483,-0.00019602,-3.408e-05,0.0,0 STARLINK-4497,1 53411U 22097Z   22302.91668981 -.00003408  00000-0 -19602-3 0  9999,2 53411  53.2131 221.3175 0001674  48.0685 126.4483 15.08859505  1309,6917.821,95.436,540.844,538.528,0.0
53411.0,STARLINK-4497,PAYLOAD,2022-10-30 00:00:00,15.08856886,0.0001717,53.2138,220.9428,45.9326,221.4271,0.00018308,2.628e-05,0.0,0 STARLINK-4497,1 53411U 22097Z   22303.00001157  .00002628  00000-0  18308-3 0  9999,2 53411  53.2138 220.9428 0001717  45.9326 221.4271 15.08856886 12962,6917.829000000002,95.436,540.882,538.506,0.0
53411.0,STARLINK-4497,PAYLOAD,2022-10-30 14:00:01,15.08809356,0.0001740999999999,53.2133,218.3236,46.9102,150.7411,0.0031142,0.00049582,0.0,0 STARLINK-4497,1 53411U 22097Z   22303.58334491  .00049582  00000-0  31142-2 0  9992,2 53411  53.2133 218.3236 0001741  46.9102 150.7411 15.08809356  1301,6917.974,95.439,541.043,538.635,0.0
53411.0,STARLINK-4497,PAYLOAD,2022-10-30 22:00:01,15.08859582,0.0001874,53.2138,216.828,49.39,159.9006,-0.0030926,-0.00049198,0.0,0 STARLINK-4497,1 53411U 22097Z   22303.91668981 -.00049198  00000-0 -30926-2 0  9997,2 53411  53.2138 216.8280 0001874  49.3900 159.9006 15.08859582  1305,6917.821,95.436,540.982,538.389,0.0
53411.0,STARLINK-4497,PAYLOAD,2022-10-31 14:00:01,15.08794421,0.000179,53.2134,213.8342,48.2089,184.2114,0.0034353,0.00054742,0.0,0 STARLINK-4497,1 53411U 22097Z   22304.58334491  .00054742  00000-0  34353-2 0  9994,2 53411  53.2134 213.8342 0001790  48.2089 184.2114 15.08794421  1301,6918.02,95.44,541.123,538.646,0.0
53411.0,STARLINK-4497,PAYLOAD,2022-10-31 22:00:01,15.08854866,0.0001864,53.2135,212.3387,48.0323,196.0094,-0.0023354,-0.0003728,0.0,0 STARLINK-4497,1 53411U 22097Z   22304.91668981 -.00037280  00000-0 -23354-2 0  9994,2 53411  53.2135 212.3387 0001864  48.0323 196.0094 15.08854866  1304,6917.835,95.437,540.989,538.41,0.0
53411.0,STARLINK-4497,PAYLOAD,2022-11-01 00:00:02,15.08851083,0.0001924,53.2134,211.965,45.9154,291.0272,-0.0024703,-0.00039401,0.0,0 STARLINK-4497,1 53411U 22097Z   22305.00002315 -.00039401  00000-0 -24703-2 0  9994,2 53411  53.2134 211.9650 0001924  45.9154 291.0272 15.08851083 13277,6917.847,95.437,541.043,538.381,0.0
53411.0,STARLINK-4497,PAYLOAD,2022-11-01 14:00:01,15.08832224,0.0001735,53.2135,209.3447,45.5733,221.601,0.00061293,9.478e-05,0.0,0 STARLINK-4497,1 53411U 22097Z   22305.58334491  .00009478  00000-0  61293-3 0  9995,2 53411  53.2135 209.3447 0001735  45.5733 221.6010 15.08832224 13356,6917.904,95.438,540.969,538.569,0.0
53411.0,STARLINK-4497,PAYLOAD,2022-11-01 22:00:00,15.0885268,0.0001813,53.2137,207.8493,44.21,234.5531,-0.0015904,-0.00025519,0.0,0 STARLINK-4497,1 53411U 22097Z   22305.91667824 -.00025519  00000-0 -15904-2 0  9994,2 53411  53.2137 207.8493 0001813  44.2100 234.5531 15.08852680  1304,6917.842,95.437,540.961,538.452,0.0
53411.0,STARLINK-4497,PAYLOAD,2022-11-02 14:00:01,15.08783429,0.000175,53.2145,204.8544,46.8304,255.1258,0.0042846,0.00068458,0.0,0 STARLINK-4497,1 53411U 22097Z   22306.58334491  .00068458  00000-0  42846-2 0  9991,2 53411  53.2145 204.8544 0001750  46.8304 255.1258 15.08783429 13505,6918.053000000001,95.441,541.129,538.7080000000002,0.0
53411.0,STARLINK-4497,PAYLOAD,2022-11-02 18:00:02,15.08821125,0.0001789,53.2151,204.1052,49.8929,77.89399999999998,0.0016785999999999,0.00026514,0.0,0 STARLINK-4497,1 53411U 22097Z   22306.75002315  .00026514  00000-0  16786-2 0  9998,2 53411  53.2151 204.1052 0001789  49.8929  77.8940 15.08821125  1305,6917.938,95.439,541.0409999999998,538.565,0.0
53411.0,STARLINK-4497,PAYLOAD,2022-11-03 02:58:31,15.08833774,0.000199,53.2163,202.4286,49.4591,310.6575,-2.8554e-05,-7.43e-06,0.0,0 STARLINK-4497,1 53411U 22097Z   22307.12397470 -.00000743  00000-0 -28554-4 0  9995,2 53411  53.2163 202.4286 0001990  49.4591 310.6575 15.08833774 13592,6917.899,95.438,541.141,538.388,0.0
